     3.04           N: GNSS NAV DATA    M: MIXED            RINEX VERSION / TYPE
ssrcrin-15.6.1x                         20250101 004500 UTC PGM / RUN BY / DATE 
    18                                                      LEAP SECONDS        
                                                            END OF HEADER       
E11 2025 01 01 00 40 00-6.079237209633E-05-2.197140247517E-10-3.469446951954E-18
     5.500000000000E+01 1.618437500000E+02 2.830475043504E-09 2.163909147890E+00
     7.575377821922E-06 2.602518070489E-04-1.061707735062E-07 5.440604848862E+03
     2.616000000000E+05-6.332993507385E-08-1.774951214391E+00 1.490116119385E-08
     9.965671287582E-01 3.580937500000E+02 1.055974924108E-01-5.675950711844E-09
     2.925121843066E-10 2.580000000000E+02 2.347000000000E+03
     3.120000000000E+00 0.000000000000E+00-1.699663698673E-08 0.000000000000E+00
     2.623400000000E+05
E36 2025 01 01 00 40 00-3.327699378133E-04-5.272227099340E-12 0.000000000000E+00
     5.500000000000E+01 1.401562500000E+02 2.763686547209E-09 2.525491378339E+00
     6.664544343948E-06 3.661718219519E-04-4.526227712631E-07 5.440613016129E+03
     2.616000000000E+05-1.303851604462E-08-1.775623883142E+00 1.192092895508E-07
     9.996680118424E-01 3.677500000000E+02-1.009626459475E+00-5.727381425568E-09
     2.832260832175E-10 2.580000000000E+02 2.347000000000E+03
     3.120000000000E+00 0.000000000000E+00 1.629814505577E-09 0.000000000000E+00
     2.623400000000E+05
E12 2025 01 01 00 40 00-1.365864474792E-03-1.713829078653E-11 0.000000000000E+00
     5.500000000000E+01 1.635000000000E+02 2.819760311478E-09-2.801986853977E+00
     7.536262273788E-06 3.826859174296E-04-4.842877388000E-08 5.440609386444E+03
     2.616000000000E+05-1.117587089539E-07-1.774945718208E+00-5.029141902924E-08
     9.965791671111E-01 3.564062500000E+02-4.206221092163E-01-5.733095949316E-09
     2.507247294057E-10 2.580000000000E+02 2.347000000000E+03
     3.120000000000E+00 0.000000000000E+00-1.396983861923E-08 0.000000000000E+00
     2.623400000000E+05
E02 2025 01 01 00 40 00 1.866135862656E-04 2.884803507186E-12 0.000000000000E+00
     5.500000000000E+01-1.987500000000E+01 3.279779473123E-09 2.140098890726E+00
    -8.791685104370E-07 5.081216804683E-04 7.228925824165E-06 5.440617362976E+03
     2.616000000000E+05-5.774199962616E-08 2.417012654142E+00 3.911554813385E-08
     9.646657906137E-01 1.880000000000E+02 6.806517820959E-01-5.455227232111E-09
    -6.003821511836E-10 2.580000000000E+02 2.347000000000E+03
     3.120000000000E+00 0.000000000000E+00-5.122274160385E-09 0.000000000000E+00
     2.623400000000E+05
S44 2025 01 01 00 52 16 8.423812687397E-07 0.000000000000E+00 2.623520000000E+05
     7.321866080000E+03 2.065000000000E-03 5.000000000000E-08 6.300000000000E+01
     4.151461368000E+04 7.631250000000E-04-1.750000000000E-07 3.276700000000E+04
     7.310692000000E+02-1.299200000000E-01-1.937500000000E-06 6.000000000000E+01
E04 2025 01 01 00 40 00-1.210237969644E-04-9.478640095040E-12 0.000000000000E+00
     5.500000000000E+01-1.475625000000E+02 2.623680715404E-09 2.690050812557E+00
    -6.802380084991E-06 1.084137475118E-04 1.151859760284E-05 5.440610345840E+03
     2.616000000000E+05-7.450580596924E-08 3.135625135716E-01 0.000000000000E+00
     9.636143709093E-01 9.731250000000E+01-1.715732744047E+00-5.087354765889E-09
     3.217991185107E-10 5.170000000000E+02 2.347000000000E+03
     3.120000000000E+00 0.000000000000E+00-6.286427378654E-09-6.053596735001E-09
     2.623550000000E+05
E04 2025 01 01 00 40 00-1.210243208334E-04-9.478640095040E-12 0.000000000000E+00
     5.500000000000E+01-1.475625000000E+02 2.623680715404E-09 2.690050812557E+00
    -6.802380084991E-06 1.084137475118E-04 1.151859760284E-05 5.440610345840E+03
     2.616000000000E+05-7.450580596924E-08 3.135625135716E-01 0.000000000000E+00
     9.636143709093E-01 9.731250000000E+01-1.715732744047E+00-5.087354765889E-09
     3.217991185107E-10 2.580000000000E+02 2.347000000000E+03
     3.120000000000E+00 0.000000000000E+00-6.286427378654E-09 0.000000000000E+00
     2.623900000000E+05
S36 2025 01 01 00 53 36 0.000000000000E+00 0.000000000000E+00 2.624230000000E+05
     4.200368800000E+04 0.000000000000E+00 0.000000000000E+00 6.300000000000E+01
     3.674846960000E+03 0.000000000000E+00 0.000000000000E+00 3.276700000000E+04
     0.000000000000E+00 0.000000000000E+00 0.000000000000E+00 1.740000000000E+02
S21 2025 01 01 00 53 36 0.000000000000E+00 0.000000000000E+00 2.624270000000E+05
     4.200468400000E+04 0.000000000000E+00 0.000000000000E+00 6.300000000000E+01
    -3.674932960000E+03 0.000000000000E+00 0.000000000000E+00 3.276700000000E+04
     0.000000000000E+00 0.000000000000E+00 0.000000000000E+00 1.240000000000E+02
S23 2025 01 01 00 54 08 0.000000000000E+00 0.000000000000E+00 2.624490000000E+05
     3.866796400000E+04 0.000000000000E+00 0.000000000000E+00 6.300000000000E+01
     1.681330800000E+04 0.000000000000E+00 0.000000000000E+00 3.276700000000E+04
     0.000000000000E+00 0.000000000000E+00 0.000000000000E+00 1.200000000000E+01
S44 2025 01 01 00 54 24 8.423812687397E-07 0.000000000000E+00 2.624720000000E+05
     7.322131280000E+03 2.078125000000E-03 5.000000000000E-08 6.300000000000E+01
     4.151470848000E+04 7.175000000000E-04-1.750000000000E-07 3.276700000000E+04
     7.144076000000E+02-1.304120000000E-01-1.875000000000E-06 6.000000000000E+01
R22 2025 01 01 00 45 00-5.366001278162E-05-1.818989403546E-12 2.625300000000E+05
    -7.157808593750E+03 1.728632926941E+00 9.313225746155E-10 0.000000000000E+00
    -1.719915039062E+04 1.643753051758E+00 1.862645149231E-09-3.000000000000E+00
     1.744952978516E+04 2.334399223328E+00-1.862645149231E-09 0.000000000000E+00
S27 2025 01 01 00 56 32 0.000000000000E+00 0.000000000000E+00 2.625670000000E+05
     2.420094896000E+04-5.775000000000E-04-2.875000000000E-07 6.300000000000E+01
     3.453539272000E+04-2.665625000000E-03 2.125000000000E-07 3.276700000000E+04
     5.567084000000E+02 4.920000000000E-03-2.937500000000E-06 1.100000000000E+01
S28 2025 01 01 00 56 32 5.476176738739E-07 4.547473508865E-11 2.625670000000E+05
     5.142991280000E+03-1.038125000000E-03-1.625000000000E-07 6.300000000000E+01
     4.184477048000E+04-1.311875000000E-03 5.000000000000E-08 3.276700000000E+04
    -2.406640000000E+01-5.440000000000E-04 1.250000000000E-07 1.100000000000E+01
S23 2025 01 01 00 56 16 0.000000000000E+00 0.000000000000E+00 2.625760000000E+05
     3.866796400000E+04 0.000000000000E+00 0.000000000000E+00 6.300000000000E+01
     1.681330800000E+04 0.000000000000E+00 0.000000000000E+00 3.276700000000E+04
     0.000000000000E+00 0.000000000000E+00 0.000000000000E+00 1.300000000000E+01
S36 2025 01 01 00 56 16 0.000000000000E+00 0.000000000000E+00 2.625790000000E+05
     4.200368800000E+04 0.000000000000E+00 0.000000000000E+00 6.300000000000E+01
     3.674846960000E+03 0.000000000000E+00 0.000000000000E+00 3.276700000000E+04
     0.000000000000E+00 0.000000000000E+00 0.000000000000E+00 1.750000000000E+02
S21 2025 01 01 00 56 16 0.000000000000E+00 0.000000000000E+00 2.625890000000E+05
     4.200468400000E+04 0.000000000000E+00 0.000000000000E+00 6.300000000000E+01
    -3.674932960000E+03 0.000000000000E+00 0.000000000000E+00 3.276700000000E+04
     0.000000000000E+00 0.000000000000E+00 0.000000000000E+00 1.250000000000E+02
S44 2025 01 01 00 56 32 8.423812687397E-07 0.000000000000E+00 2.625920000000E+05
     7.322398000000E+03 2.090000000000E-03 3.750000000000E-08 6.300000000000E+01
     4.151479744000E+04 6.712500000000E-04-1.750000000000E-07 3.276700000000E+04
     6.976840000000E+02-1.308920000000E-01-1.875000000000E-06 6.000000000000E+01
E10 2025 01 01 00 40 00-6.801941199228E-04-2.501110429876E-12 0.000000000000E+00
     5.500000000000E+01 1.608437500000E+02 2.792973481413E-09-1.551663109431E+00
     7.478520274162E-06 1.196073135361E-04 3.259629011154E-07 5.440602830887E+03
     2.616000000000E+05-8.009374141693E-08-1.777513913321E+00 1.490116119385E-08
     9.995081178222E-01 3.501562500000E+02-2.035780535848E+00-5.665235979818E-09
     2.650110387735E-10 5.170000000000E+02 2.347000000000E+03
     3.120000000000E+00 0.000000000000E+00-4.656612873077E-09-3.492459654808E-09
     2.626550000000E+05
E30 2025 01 01 00 40 00-1.088344200980E-03-3.991829089500E-11 0.000000000000E+00
     5.500000000000E+01-1.790625000000E+01 3.296923044364E-09 1.058771849389E+00
    -8.177012205124E-07 5.733568686992E-04 7.305294275284E-06 5.440614589691E+03
     2.616000000000E+05 2.421438694000E-08 2.416445175052E+00 3.725290298462E-08
     9.620666152847E-01 1.817812500000E+02 9.669116683006E-01-5.431654821654E-09
    -5.914532078287E-10 5.170000000000E+02 2.347000000000E+03
     3.120000000000E+00 0.000000000000E+00-1.629814505577E-09-1.164153218269E-09
     2.626550000000E+05
E10 2025 01 01 00 40 00-6.801956333220E-04-2.501110429876E-12 0.000000000000E+00
     5.500000000000E+01 1.608437500000E+02 2.792973481413E-09-1.551663109431E+00
     7.478520274162E-06 1.196073135361E-04 3.259629011154E-07 5.440602830887E+03
     2.616000000000E+05-8.009374141693E-08-1.777513913321E+00 1.490116119385E-08
     9.995081178222E-01 3.501562500000E+02-2.035780535848E+00-5.665235979818E-09
     2.650110387735E-10 2.580000000000E+02 2.347000000000E+03
     3.120000000000E+00 0.000000000000E+00-4.656612873077E-09 0.000000000000E+00
     2.626900000000E+05
E30 2025 01 01 00 40 00-1.088345015887E-03-3.991829089500E-11 0.000000000000E+00
     5.500000000000E+01-1.790625000000E+01 3.296923044364E-09 1.058771849389E+00
    -8.177012205124E-07 5.733568686992E-04 7.305294275284E-06 5.440614589691E+03
     2.616000000000E+05 2.421438694000E-08 2.416445175052E+00 3.725290298462E-08
     9.620666152847E-01 1.817812500000E+02 9.669116683006E-01-5.431654821654E-09
    -5.914532078287E-10 2.580000000000E+02 2.347000000000E+03
     3.120000000000E+00 0.000000000000E+00-1.629814505577E-09 0.000000000000E+00
     2.626900000000E+05
